STARLINK-11242 [DTC]    
1 60903U 24154A   24274.10727730  .00006696  00000+0  44868-4 0  9990
2 60903  53.1595 203.8099 0001227  78.8051 281.3107 15.76732571  5944
STARLINK-11256 [DTC]    
1 60904U 24154B   24273.53193357  .00024168  00000+0  15125-3 0  9996
2 60904  53.1592 206.6197 0001391  82.7798 277.3381 15.76727551  5857
STARLINK-11159 [DTC]    
1 60905U 24154C   24274.22429372  .00018944  00000+0  11936-3 0  9994
2 60905  53.1595 203.1140 0000187  91.8496 268.2546 15.76751376  5965
STARLINK-11264 [DTC]    
1 60906U 24154D   24274.09264590  .00022840  00000+0  14293-3 0  9998
2 60906  53.1586 203.7135 0001310  90.1376 269.9795 15.76767439  5943
STARLINK-11226 [DTC]    
1 60907U 24154E   24273.83423379  .00009098  00000+0  59506-4 0  9999
2 60907  53.1598 204.9447 0001831  91.3348 268.7883 15.76737786  5909
STARLINK-11229 [DTC]    
1 60908U 24154F   24273.82936029  .00021779  00000+0  13666-3 0  9996
2 60908  53.1592 204.9095 0001473  80.0344 280.0843 15.76739388  5909
STARLINK-11265 [DTC]    
1 60909U 24154G   24273.82448335  .00013162  00000+0  84254-4 0  9994
2 60909  53.1593 204.8768 0001635  73.3532 286.7668 15.76738532  5909
STARLINK-11250 [DTC]    
1 60910U 24154H   24274.07314849  .00002161  00000+0  17199-4 0  9997
2 60910  53.1605 203.5806 0001300  66.4670 293.6488 15.76728164  5939
STARLINK-11190 [DTC]    
1 60911U 24154J   24273.81471936  .00031909  00000+0  19783-3 0  9992
2 60911  53.1594 204.8117 0001450  84.9082 275.2104 15.76773528  5894
STARLINK-11225 [DTC]    
1 60912U 24154K   24273.11260021  .00006783  00000+0  45354-4 0  9993
2 60912  53.1599 208.2550 0001325  82.2030 277.9141 15.76756676  5787
STARLINK-11273 [DTC]    
1 60913U 24154L   24274.18529029 -.00003594  00000+0 -17987-4 0  9998
2 60913  53.1613 202.8451 0000681 124.8558 235.2527 15.76716282  5961
STARLINK-11248 [DTC]    
1 60914U 24154M   24273.80009839  .00004769  00000+0  33107-4 0  9994
2 60914  53.1605 204.7131 0001671  60.8611 299.2577 15.76740964  5899
STARLINK-11271 [DTC]    
1 60915U 24154N   24273.79522529 -.00000800  00000+0 -88502-6 0  9994
2 60915  53.1606 204.6784 0001705  85.9297 274.1919 15.76727384  5893
STARLINK-32371          
1 60916U 24154P   24273.82993658 -.00000736  00000+0 -51779-5 0  9997
2 60916  53.1608 207.0963 0001306 103.2284 256.8871 15.49312223  5817
