[
    {
    "OBJECT_NAME": "STARLINK-11242 [DTC]",
    "OBJECT_ID": "2024-154A",
    "EPOCH": "2024-09-30T02:34:28.758720",
    "MEAN_MOTION": 15.76732571,
    "ECCENTRICITY": 0.0001227,
    "INCLINATION": 53.1595,
    "RA_OF_ASC_NODE": 203.8099,
    "ARG_OF_PERICENTER": 78.8051,
    "MEAN_ANOMALY": 281.3107,
    "EPHEMERIS_TYPE": 0,
    "CLASSIFICATION_TYPE": "U",
    "NORAD_CAT_ID": 60903,
    "ELEMENT_SET_NO": 999,
    "REV_AT_EPOCH": 594,
    "BSTAR": 0.000044868,
    "MEAN_MOTION_DOT": 0.00006696,
    "MEAN_MOTION_DDOT": 0
    },
    {
    "OBJECT_NAME": "STARLINK-11256 [DTC]",
    "OBJECT_ID": "2024-154B",
    "EPOCH": "2024-09-29T12:45:59.060448",
    "MEAN_MOTION": 15.76727551,
    "ECCENTRICITY": 0.0001391,
    "INCLINATION": 53.1592,
    "RA_OF_ASC_NODE": 206.6197,
    "ARG_OF_PERICENTER": 82.7798,
    "MEAN_ANOMALY": 277.3381,
    "EPHEMERIS_TYPE": 0,
    "CLASSIFICATION_TYPE": "U",
    "NORAD_CAT_ID": 60904,
    "ELEMENT_SET_NO": 999,
    "REV_AT_EPOCH": 585,
    "BSTAR": 0.00015125,
    "MEAN_MOTION_DOT": 0.00024168,
    "MEAN_MOTION_DDOT": 0
    },
    {
    "OBJECT_NAME": "STARLINK-11159 [DTC]",
    "OBJECT_ID": "2024-154C",
    "EPOCH": "2024-09-30T05:22:58.977408",
    "MEAN_MOTION": 15.76751376,
    "ECCENTRICITY": 0.0000187,
    "INCLINATION": 53.1595,
    "RA_OF_ASC_NODE": 203.114,
    "ARG_OF_PERICENTER": 91.8496,
    "MEAN_ANOMALY": 268.2546,
    "EPHEMERIS_TYPE": 0,
    "CLASSIFICATION_TYPE": "U",
    "NORAD_CAT_ID": 60905,
    "ELEMENT_SET_NO": 999,
    "REV_AT_EPOCH": 596,
    "BSTAR": 0.00011936,
    "MEAN_MOTION_DOT": 0.00018944,
    "MEAN_MOTION_DDOT": 0
    },
    {
    "OBJECT_NAME": "STARLINK-11264 [DTC]",
    "OBJECT_ID": "2024-154D",
    "EPOCH": "2024-09-30T02:13:24.605760",
    "MEAN_MOTION": 15.76767439,
    "ECCENTRICITY": 0.000131,
    "INCLINATION": 53.1586,
    "RA_OF_ASC_NODE": 203.7135,
    "ARG_OF_PERICENTER": 90.1376,
    "MEAN_ANOMALY": 269.9795,
    "EPHEMERIS_TYPE": 0,
    "CLASSIFICATION_TYPE": "U",
    "NORAD_CAT_ID": 60906,
    "ELEMENT_SET_NO": 999,
    "REV_AT_EPOCH": 594,
    "BSTAR": 0.00014293,
    "MEAN_MOTION_DOT": 0.0002284,
    "MEAN_MOTION_DDOT": 0
    },
    {
    "OBJECT_NAME": "STARLINK-11226 [DTC]",
    "OBJECT_ID": "2024-154E",
    "EPOCH": "2024-09-29T20:01:17.799456",
    "MEAN_MOTION": 15.76737786,
    "ECCENTRICITY": 0.0001831,
    "INCLINATION": 53.1598,
    "RA_OF_ASC_NODE": 204.9447,
    "ARG_OF_PERICENTER": 91.3348,
    "MEAN_ANOMALY": 268.7883,
    "EPHEMERIS_TYPE": 0,
    "CLASSIFICATION_TYPE": "U",
    "NORAD_CAT_ID": 60907,
    "ELEMENT_SET_NO": 999,
    "REV_AT_EPOCH": 590,
    "BSTAR": 0.000059506,
    "MEAN_MOTION_DOT": 0.00009098,
    "MEAN_MOTION_DDOT": 0
    },
    {
    "OBJECT_NAME": "STARLINK-11229 [DTC]",
    "OBJECT_ID": "2024-154F",
    "EPOCH": "2024-09-29T19:54:16.729056",
    "MEAN_MOTION": 15.76739388,
    "ECCENTRICITY": 0.0001473,
    "INCLINATION": 53.1592,
    "RA_OF_ASC_NODE": 204.9095,
    "ARG_OF_PERICENTER": 80.0344,
    "MEAN_ANOMALY": 280.0843,
    "EPHEMERIS_TYPE": 0,
    "CLASSIFICATION_TYPE": "U",
    "NORAD_CAT_ID": 60908,
    "ELEMENT_SET_NO": 999,
    "REV_AT_EPOCH": 590,
    "BSTAR": 0.00013666,
    "MEAN_MOTION_DOT": 0.00021779,
    "MEAN_MOTION_DDOT": 0
    },
    {
    "OBJECT_NAME": "STARLINK-11265 [DTC]",
    "OBJECT_ID": "2024-154G",
    "EPOCH": "2024-09-29T19:47:15.361440",
    "MEAN_MOTION": 15.76738532,
    "ECCENTRICITY": 0.0001635,
    "INCLINATION": 53.1593,
    "RA_OF_ASC_NODE": 204.8768,
    "ARG_OF_PERICENTER": 73.3532,
    "MEAN_ANOMALY": 286.7668,
    "EPHEMERIS_TYPE": 0,
    "CLASSIFICATION_TYPE": "U",
    "NORAD_CAT_ID": 60909,
    "ELEMENT_SET_NO": 999,
    "REV_AT_EPOCH": 590,
    "BSTAR": 0.000084254,
    "MEAN_MOTION_DOT": 0.00013162,
    "MEAN_MOTION_DDOT": 0
    },
    {
    "OBJECT_NAME": "STARLINK-11250 [DTC]",
    "OBJECT_ID": "2024-154H",
    "EPOCH": "2024-09-30T01:45:20.029536",
    "MEAN_MOTION": 15.76728164,
    "ECCENTRICITY": 0.00013,
    "INCLINATION": 53.1605,
    "RA_OF_ASC_NODE": 203.5806,
    "ARG_OF_PERICENTER": 66.467,
    "MEAN_ANOMALY": 293.6488,
    "EPHEMERIS_TYPE": 0,
    "CLASSIFICATION_TYPE": "U",
    "NORAD_CAT_ID": 60910,
    "ELEMENT_SET_NO": 999,
    "REV_AT_EPOCH": 593,
    "BSTAR": 0.000017199,
    "MEAN_MOTION_DOT": 0.00002161,
    "MEAN_MOTION_DDOT": 0
    },
    {
    "OBJECT_NAME": "STARLINK-11190 [DTC]",
    "OBJECT_ID": "2024-154J",
    "EPOCH": "2024-09-29T19:33:11.752704",
    "MEAN_MOTION": 15.76773528,
    "ECCENTRICITY": 0.000145,
    "INCLINATION": 53.1594,
    "RA_OF_ASC_NODE": 204.8117,
    "ARG_OF_PERICENTER": 84.9082,
    "MEAN_ANOMALY": 275.2104,
    "EPHEMERIS_TYPE": 0,
    "CLASSIFICATION_TYPE": "U",
    "NORAD_CAT_ID": 60911,
    "ELEMENT_SET_NO": 999,
    "REV_AT_EPOCH": 589,
    "BSTAR": 0.00019783,
    "MEAN_MOTION_DOT": 0.00031909,
    "MEAN_MOTION_DDOT": 0
    },
    {
    "OBJECT_NAME": "STARLINK-11225 [DTC]",
    "OBJECT_ID": "2024-154K",
    "EPOCH": "2024-09-29T02:42:08.658144",
    "MEAN_MOTION": 15.76756676,
    "ECCENTRICITY": 0.0001325,
    "INCLINATION": 53.1599,
    "RA_OF_ASC_NODE": 208.255,
    "ARG_OF_PERICENTER": 82.203,
    "MEAN_ANOMALY": 277.9141,
    "EPHEMERIS_TYPE": 0,
    "CLASSIFICATION_TYPE": "U",
    "NORAD_CAT_ID": 60912,
    "ELEMENT_SET_NO": 999,
    "REV_AT_EPOCH": 578,
    "BSTAR": 0.000045354,
    "MEAN_MOTION_DOT": 0.00006783,
    "MEAN_MOTION_DDOT": 0
    },
    {
    "OBJECT_NAME": "STARLINK-11273 [DTC]",
    "OBJECT_ID": "2024-154L",
    "EPOCH": "2024-09-30T04:26:49.081056",
    "MEAN_MOTION": 15.76716282,
    "ECCENTRICITY": 0.0000681,
    "INCLINATION": 53.1613,
    "RA_OF_ASC_NODE": 202.8451,
    "ARG_OF_PERICENTER": 124.8558,
    "MEAN_ANOMALY": 235.2527,
    "EPHEMERIS_TYPE": 0,
    "CLASSIFICATION_TYPE": "U",
    "NORAD_CAT_ID": 60913,
    "ELEMENT_SET_NO": 999,
    "REV_AT_EPOCH": 596,
    "BSTAR": -0.000017987,
    "MEAN_MOTION_DOT": -0.00003594,
    "MEAN_MOTION_DDOT": 0
    },
    {
    "OBJECT_NAME": "STARLINK-11248 [DTC]",
    "OBJECT_ID": "2024-154M",
    "EPOCH": "2024-09-29T19:12:08.500896",
    "MEAN_MOTION": 15.76740964,
    "ECCENTRICITY": 0.0001671,
    "INCLINATION": 53.1605,
    "RA_OF_ASC_NODE": 204.7131,
    "ARG_OF_PERICENTER": 60.8611,
    "MEAN_ANOMALY": 299.2577,
    "EPHEMERIS_TYPE": 0,
    "CLASSIFICATION_TYPE": "U",
    "NORAD_CAT_ID": 60914,
    "ELEMENT_SET_NO": 999,
    "REV_AT_EPOCH": 589,
    "BSTAR": 0.000033107,
    "MEAN_MOTION_DOT": 0.00004769,
    "MEAN_MOTION_DDOT": 0
    },
    {
    "OBJECT_NAME": "STARLINK-11271 [DTC]",
    "OBJECT_ID": "2024-154N",
    "EPOCH": "2024-09-29T19:05:07.465056",
    "MEAN_MOTION": 15.76727384,
    "ECCENTRICITY": 0.0001705,
    "INCLINATION": 53.1606,
    "RA_OF_ASC_NODE": 204.6784,
    "ARG_OF_PERICENTER": 85.9297,
    "MEAN_ANOMALY": 274.1919,
    "EPHEMERIS_TYPE": 0,
    "CLASSIFICATION_TYPE": "U",
    "NORAD_CAT_ID": 60915,
    "ELEMENT_SET_NO": 999,
    "REV_AT_EPOCH": 589,
    "BSTAR": -8.8502e-7,
    "MEAN_MOTION_DOT": -0.000008,
    "MEAN_MOTION_DDOT": 0
    },
    {
    "OBJECT_NAME": "STARLINK-32371",
    "OBJECT_ID": "2024-154P",
    "EPOCH": "2024-09-29T19:55:06.520512",
    "MEAN_MOTION": 15.49312223,
    "ECCENTRICITY": 0.0001306,
    "INCLINATION": 53.1608,
    "RA_OF_ASC_NODE": 207.0963,
    "ARG_OF_PERICENTER": 103.2284,
    "MEAN_ANOMALY": 256.8871,
    "EPHEMERIS_TYPE": 0,
    "CLASSIFICATION_TYPE": "U",
    "NORAD_CAT_ID": 60916,
    "ELEMENT_SET_NO": 999,
    "REV_AT_EPOCH": 581,
    "BSTAR": -0.0000051779,
    "MEAN_MOTION_DOT": -0.00000736,
    "MEAN_MOTION_DDOT": 0
    }
    ]
